NORAD_CAT_ID,OBJECT_NAME,OBJECT_TYPE,EPOCH,MEAN_MOTION,ECCENTRICITY,INCLINATION,RA_OF_ASC_NODE,ARG_OF_PERICENTER,MEAN_ANOMALY,BSTAR,MEAN_MOTION_DOT,MEAN_MOTION_DDOT,TLE_LINE0,TLE_LINE1,TLE_LINE2,SEMIMAJOR_AXIS,PERIOD,APOGEE,PERIGEE,DECAYED
54793.0,STARLINK-5433,PAYLOAD,2023-03-06 00:09:13,15.49875553,0.0001124,53.2155,280.8406,76.4431,283.6704,-5.8421e-06,-7.83e-06,0.0,0 STARLINK-5433,1 54793U 22175AM  23065.00640986 -.00000783  00000-0 -58421-5 0  9999,2 54793  53.2155 280.8406 0001124  76.4431 283.6704 15.49875553 12029,6795.227,92.911,417.856,416.328,0.0
54793.0,STARLINK-5433,PAYLOAD,2023-03-06 20:16:23,15.49873247,0.0001027,53.2154,276.8334,72.4717,287.6405,-1.9184e-05,-1.539e-05,0.0,0 STARLINK-5433,1 54793U 22175AM  23065.84471425 -.00001539  00000-0 -19184-4 0  9993,2 54793  53.2154 276.8334 0001027  72.4717 287.6405 15.49873247 14312,6795.234,92.911,417.796,416.401,0.0
54793.0,STARLINK-5433,PAYLOAD,2023-03-07 14:50:39,15.49904625,8.42e-05,53.2138,273.138,54.5762,305.5326,-0.00011109,-6.755e-05,0.0,0 STARLINK-5433,1 54793U 22175AM  23066.61850881 -.00006755  00000-0 -11109-3 0  9999,2 54793  53.2138 273.1380 0000842  54.5762 305.5326 15.49904625 12270,6795.142,92.909,417.579,416.435,0.0
54793.0,STARLINK-5433,PAYLOAD,2023-03-07 22:34:56,15.49898055,9.88e-05,53.2134,271.5969,52.9887,307.1213,-7.8211e-05,-4.889e-05,0.0,0 STARLINK-5433,1 54793U 22175AM  23066.94093159 -.00004889  00000-0 -78211-4 0  9996,2 54793  53.2134 271.5969 0000988  52.9887 307.1213 15.49898055 14489,6795.161,92.909,417.697,416.355,0.0
54793.0,STARLINK-5433,PAYLOAD,2023-03-08 20:14:57,15.49886901,0.0001022,53.213,267.2803,63.4517,296.6598,4.8579e-05,2.307e-05,0.0,0 STARLINK-5433,1 54793U 22175AM  23067.84372068  .00002307  00000-0  48579-4 0  9990,2 54793  53.2130 267.2803 0001022  63.4517 296.6598 15.49886901 12462,6795.194,92.91,417.753,416.364,0.0
54793.0,STARLINK-5433,PAYLOAD,2023-03-09 19:27:49,15.49887138,9.08e-05,53.2129,262.658,86.993,273.1184,2.2854e-05,8.46e-06,0.0,0 STARLINK-5433,1 54793U 22175AM  23068.81098859  .00000846  00000-0  22854-4 0  9995,2 54793  53.2129 262.6580 0000908  86.9930 273.1184 15.49887138 14772,6795.193,92.91,417.675,416.441,0.0
54793.0,STARLINK-5433,PAYLOAD,2023-03-10 20:13:33,15.49885484,9.65e-05,53.2159,257.7264,95.9393,264.1727,4.5602e-06,-1.92e-06,0.0,0 STARLINK-5433,1 54793U 22175AM  23069.84274341 -.00000192  00000-0  45602-5 0  9993,2 54793  53.2159 257.7264 0000965  95.9393 264.1727 15.49885484 14938,6795.198,92.91,417.719,416.407,0.0
54793.0,STARLINK-5433,PAYLOAD,2023-03-11 13:14:58,15.49894968,7.2e-05,53.2167,254.3369,102.1281,257.981,4.5735e-05,2.146e-05,0.0,0 STARLINK-5433,1 54793U 22175AM  23070.55206190  .00002146  00000-0  45735-4 0  9996,2 54793  53.2167 254.3369 0000720 102.1281 257.9810 15.49894968 15045,6795.17,92.91,417.524,416.546,0.0
54793.0,STARLINK-5433,PAYLOAD,2023-03-11 20:59:16,15.4988403,7.39e-05,53.2154,252.7957,96.4002,263.7092,2.1886e-05,7.91e-06,0.0,0 STARLINK-5433,1 54793U 22175AM  23070.87449278  .00000791  00000-0  21886-4 0  9992,2 54793  53.2154 252.7957 0000739  96.4002 263.7092 15.49884030 15093,6795.202,92.91,417.569,416.565,0.0
54793.0,STARLINK-5433,PAYLOAD,2023-03-12 12:28:00,15.49739448,0.0002481,53.2168,249.7148,315.0525,45.0284,-0.00031344,-0.0001811,0.0,0 STARLINK-5433,1 54793U 22175AM  23071.51945546 -.00018110  00000-0 -31344-3 0  9998,2 54793  53.2168 249.7148 0002481 315.0525  45.0284 15.49739448 13030,6795.625,92.919,419.176,415.804,0.0
54793.0,STARLINK-5433,PAYLOAD,2023-03-12 21:45:32,15.49497369,0.0001384,53.2171,247.8668,34.5564,325.5536,-0.00085062,-0.0004778,0.0,0 STARLINK-5433,1 54793U 22175AM  23071.90662362 -.00047780  00000-0 -85062-3 0  9994,2 54793  53.2171 247.8668 0001384  34.5564 325.5536 15.49497369 15252,6796.332,92.933,419.138,417.257,0.0
54793.0,STARLINK-5433,PAYLOAD,2023-03-13 00:51:21,15.49169561,6.27e-05,53.216,247.252,62.3967,297.7106,-0.0026337,-0.00143548,0.0,0 STARLINK-5433,1 54793U 22175AM  23072.03566948 -.00143548  00000-0 -26337-2 0  9990,2 54793  53.2160 247.2520 0000627  62.3967 297.7106 15.49169561 13112,6797.291,92.953,419.582,418.73,0.0
54793.0,STARLINK-5433,PAYLOAD,2023-03-13 11:42:00,15.48751721,0.0001403,53.2152,245.0963,143.0002,217.1105,-0.003669,-0.00195609,0.0,0 STARLINK-5433,1 54793U 22175AM  23072.48750716 -.00195609  00000-0 -36690-2 0  9995,2 54793  53.2152 245.0963 0001403 143.0002 217.1105 15.48751721 13186,6798.514,92.978,421.332,419.425,0.0
54793.0,STARLINK-5433,PAYLOAD,2023-03-13 22:00:00,15.46840675,0.0001209,53.2146,243.0531,76.4257,156.2238,-0.018548,-0.00873741,0.0,0 STARLINK-5433,1 54793U 22175AM  23072.91667824 -.00873741  00000-0 -18548-1 0  9991,2 54793  53.2146 243.0531 0001209  76.4257 156.2238 15.46840675 13245,6804.112,93.093,426.8,425.154,0.0
54793.0,STARLINK-5433,PAYLOAD,2023-03-14 06:00:00,15.46177712,0.0001153,53.2149,241.4661,85.8903,203.6507,-0.018866,-0.00868881,0.0,0 STARLINK-5433,1 54793U 22175AM  23073.25001157 -.00868881  00000-0 -18866-1 0  9992,2 54793  53.2149 241.4661 0001153  85.8903 203.6507 15.46177712 13302,6806.057,93.133,428.707,427.137,0.0
54793.0,STARLINK-5433,PAYLOAD,2023-03-14 14:00:01,15.45580476,0.0001164,53.2148,239.8831,83.6859,261.9359,-0.021369,-0.00956163,0.0,0 STARLINK-5433,1 54793U 22175AM  23073.58334491 -.00956163  00000-0 -21369-1 0  9991,2 54793  53.2148 239.8831 0001164  83.6859 261.9359 15.45580476  1302,6807.81,93.169,430.467,428.883,0.0
54793.0,STARLINK-5433,PAYLOAD,2023-03-14 22:00:00,15.44895911,0.000125,53.2144,238.3026,68.8305,332.1152,-0.020199,-0.00888435,0.0,0 STARLINK-5433,1 54793U 22175AM  23073.91667824 -.00888435  00000-0 -20199-1 0  9993,2 54793  53.2144 238.3026 0001250  68.8305 332.1152 15.44895911  1309,6809.821,93.21,432.537,430.835,0.0
54793.0,STARLINK-5433,PAYLOAD,2023-03-15 14:00:01,15.43618453,0.0001355,53.214,235.1422,85.585,63.6456,-0.02251,-0.00942933,0.0,0 STARLINK-5433,1 54793U 22175AM  23074.58334491 -.00942933  00000-0 -22510-1 0  9991,2 54793  53.2140 235.1422 0001355  85.5850  63.6456 15.43618453  1303,6813.578,93.287,436.366,434.519,0.0
54793.0,STARLINK-5433,PAYLOAD,2023-03-15 22:00:00,15.42946113,0.0001411,53.2134,233.5662,78.879,123.3247,-0.021769,-0.00895349,0.0,0 STARLINK-5433,1 54793U 22175AM  23074.91667824 -.00895349  00000-0 -21769-1 0  9990,2 54793  53.2134 233.5662 0001411  78.8790 123.3247 15.42946113  1303,6815.557,93.328,438.383,436.46,0.0
54793.0,STARLINK-5433,PAYLOAD,2023-03-16 14:00:01,15.41660386,0.0001126,53.2133,230.4153,88.7835,217.0127,-0.0238,-0.00933863,0.0,0 STARLINK-5433,1 54793U 22175AM  23075.58334491 -.00933863  00000-0 -23800-1 0  9997,2 54793  53.2133 230.4153 0001126  88.7835 217.0127 15.41660386 13660,6819.346,93.406,441.978,440.443,0.0
54793.0,STARLINK-5433,PAYLOAD,2023-03-16 22:00:00,15.40999114,0.0001198,53.2128,228.8436,73.6817,282.7371,-0.023524,-0.00905285,0.0,0 STARLINK-5433,1 54793U 22175AM  23075.91667824 -.00905285  00000-0 -23524-1 0  9993,2 54793  53.2128 228.8436 0001198  73.6817 282.7371 15.40999114  1302,6821.296,93.446,443.979,442.344,0.0
54793.0,STARLINK-5433,PAYLOAD,2023-03-17 14:00:01,15.39705072,0.0001314,53.2131,225.7018,79.1581,16.1645,-0.025394,-0.00933556,0.0,0 STARLINK-5433,1 54793U 22175AM  23076.58334491 -.00933556  00000-0 -25394-1 0  9997,2 54793  53.2131 225.7018 0001314  79.1581  16.1645 15.39705072  1306,6825.118,93.524,447.88,446.086,0.0
54793.0,STARLINK-5433,PAYLOAD,2023-03-17 22:00:00,15.39050104,0.0001457,53.213,224.1346,74.396,69.1983,-0.025267,-0.00910984,0.0,0 STARLINK-5433,1 54793U 22175AM  23076.91667824 -.00910984  00000-0 -25267-1 0  9992,2 54793  53.2130 224.1346 0001457  74.3960  69.1983 15.39050104 13864,6827.054,93.564,449.914,447.924,0.0
54793.0,STARLINK-5433,PAYLOAD,2023-03-18 22:00:00,15.37106267,0.000125,53.2135,219.4395,86.494,197.2352,-0.027428,-0.00926435,0.0,0 STARLINK-5433,1 54793U 22175AM  23077.91667824 -.00926435  00000-0 -27428-1 0  9992,2 54793  53.2135 219.4395 0001250  86.4940 197.2352 15.37106267 14025,6832.808,93.683,455.528,453.819,0.0
54793.0,STARLINK-5433,PAYLOAD,2023-03-19 14:00:01,15.35798059,0.0001462,53.2144,216.3166,84.8747,288.3715,-0.028716,-0.00929424,0.0,0 STARLINK-5433,1 54793U 22175AM  23078.58334491 -.00929424  00000-0 -28716-1 0  9999,2 54793  53.2144 216.3166 0001462  84.8747 288.3715 15.35798059  1305,6836.688,93.762,459.553,457.554,0.0
54793.0,STARLINK-5433,PAYLOAD,2023-03-19 22:00:00,15.35158335,0.000132,53.2143,214.7583,72.6316,344.1901,-0.029502,-0.00934858,0.0,0 STARLINK-5433,1 54793U 22175AM  23078.91667824 -.00934858  00000-0 -29502-1 0  9996,2 54793  53.2143 214.7583 0001320  72.6316 344.1901 15.35158335  1304,6838.587,93.801,461.355,459.55,0.0
54793.0,STARLINK-5433,PAYLOAD,2023-03-20 06:00:00,15.3446966,0.000129,53.2147,213.1993,81.9977,17.6417,-0.028179,-0.00878216,0.0,0 STARLINK-5433,1 54793U 22175AM  23079.25001157 -.00878216  00000-0 -28179-1 0  9999,2 54793  53.2147 213.1993 0001290  81.9977  17.6417 15.34469660 14222,6840.633,93.843,463.381,461.616,0.0
54793.0,STARLINK-5433,PAYLOAD,2023-03-20 14:00:01,15.33837741,0.0001443,53.2149,211.6449,76.4608,65.1925,-0.030243,-0.00920005,0.0,0 STARLINK-5433,1 54793U 22175AM  23079.58334491 -.00920005  00000-0 -30243-1 0  9994,2 54793  53.2149 211.6449 0001443  76.4608  65.1925 15.33837741  1308,6842.512,93.882,465.364,463.39,0.0
54793.0,STARLINK-5433,PAYLOAD,2023-03-20 22:00:01,15.3321003,0.0001469,53.2148,210.0911,75.4402,107.5023,-0.031819,-0.00946378,0.0,0 STARLINK-5433,1 54793U 22175AM  23079.91668981 -.00946378  00000-0 -31819-1 0  9996,2 54793  53.2148 210.0911 0001469  75.4402 107.5023 15.33210030 14325,6844.379,93.921,467.25,465.239,0.0
54793.0,STARLINK-5433,PAYLOAD,2023-03-21 14:00:01,15.31880784,0.0001422,53.215,206.9873,85.6464,177.4336,-0.031903,-0.00912787,0.0,0 STARLINK-5433,1 54793U 22175AM  23080.58335648 -.00912787  00000-0 -31903-1 0  9993,2 54793  53.2150 206.9873 0001422  85.6464 177.4336 15.31880784 14431,6848.338,94.002,471.177,469.229,0.0
